NORAD_CAT_ID,OBJECT_NAME,OBJECT_TYPE,EPOCH,MEAN_MOTION,ECCENTRICITY,INCLINATION,RA_OF_ASC_NODE,ARG_OF_PERICENTER,MEAN_ANOMALY,BSTAR,MEAN_MOTION_DOT,MEAN_MOTION_DDOT,TLE_LINE0,TLE_LINE1,TLE_LINE2,SEMIMAJOR_AXIS,PERIOD,APOGEE,PERIGEE,DECAYED
49735.0,STARLINK-3113,PAYLOAD,2024-04-09 06:40:53,15.08840898,0.0001365,53.218,58.779,95.254,264.8608,0.0001128,1.508e-05,0.0,0 STARLINK-3113,1 49735U 21115M   24100.27839786  .00001508  00000-0  11280-3 0  9994,2 49735  53.2180  58.7790 0001365  95.2540 264.8608 15.08840898130914,6917.878,95.437,540.687,538.798,0.0
49735.0,STARLINK-3113,PAYLOAD,2024-04-09 20:59:21,15.08848087,0.0001456,53.2186,56.106,97.6767,262.4391,6.3194e-05,7.18e-06,0.0,0 STARLINK-3113,1 49735U 21115M   24100.87455474  .00000718  00000-0  63194-4 0  9992,2 49735  53.2186  56.1060 0001456  97.6767 262.4391 15.08848087129896,6917.856,95.437,540.728,538.713,0.0
49735.0,STARLINK-3113,PAYLOAD,2024-04-10 14:28:35,15.08844452,0.0001579,53.2206,52.8303,104.6491,255.4677,6.8516e-05,8.03e-06,0.0,0 STARLINK-3113,1 49735U 21115M   24101.60319444  .00000803  00000-0  68516-4 0  9998,2 49735  53.2206  52.8303 0001579 104.6491 255.4677 15.08844452130007,6917.867,95.437,540.824,538.639,0.0
49735.0,STARLINK-3113,PAYLOAD,2024-04-11 03:11:41,15.08833699,0.0001466,53.2192,50.4538,91.7843,268.3317,2.938e-05,1.8e-06,0.0,0 STARLINK-3113,1 49735U 21115M   24102.13312265  .00000180  00000-0  29380-4 0  9995,2 49735  53.2192  50.4538 0001466  91.7843 268.3317 15.08833699131193,6917.9,95.438,540.779,538.75,0.0
49735.0,STARLINK-3113,PAYLOAD,2024-04-11 06:22:28,15.08835968,0.0001647,53.2209,49.8577,99.8124,260.3054,1.2913e-05,-8.3e-07,0.0,0 STARLINK-3113,1 49735U 21115M   24102.26560198 -.00000083  00000-0  12913-4 0  9996,2 49735  53.2209  49.8577 0001647  99.8124 260.3054 15.08835968130100,6917.893,95.438,540.897,538.618,0.0
49735.0,STARLINK-3113,PAYLOAD,2024-04-12 03:02:28,15.08840097,0.0001454,53.2199,45.9928,96.4835,263.6323,5.2572e-05,5.49e-06,0.0,0 STARLINK-3113,1 49735U 21115M   24103.12672004  .00000549  00000-0  52572-4 0  9993,2 49735  53.2199  45.9928 0001454  96.4835 263.6323 15.08840097131344,6917.88,95.438,540.751,538.739,0.0
49735.0,STARLINK-3113,PAYLOAD,2024-04-13 06:04:02,15.08839666,0.0001312,53.2186,40.9375,86.6569,273.4573,9.578e-05,1.237e-05,0.0,0 STARLINK-3113,1 49735U 21115M   24104.25280142  .00001237  00000-0  95780-4 0  9999,2 49735  53.2186  40.9375 0001312  86.6569 273.4573 15.08839666131514,6917.881,95.438,540.654,538.839,0.0
49735.0,STARLINK-3113,PAYLOAD,2024-04-14 01:08:39,15.08834181,0.0001275,53.2188,37.3676,103.126,256.9875,-6.5674e-06,-3.92e-06,0.0,0 STARLINK-3113,1 49735U 21115M   24105.04768508 -.00000392  00000-0 -65674-5 0  9997,2 49735  53.2188  37.3676 0001275 103.1260 256.9875 15.08834181131632,6917.898,95.438,540.645,538.881,0.0
49735.0,STARLINK-3113,PAYLOAD,2024-04-15 04:10:13,15.08846053,0.0001317,53.219,32.3121,104.6338,255.48,0.00021689,3.166e-05,0.0,0 STARLINK-3113,1 49735U 21115M   24106.17376245  .00003166  00000-0  21689-3 0  9991,2 49735  53.2190  32.3121 0001317 104.6338 255.4800 15.08846053131806,6917.862,95.437,540.638,538.816,0.0
49735.0,STARLINK-3113,PAYLOAD,2024-04-16 00:50:13,15.08845476,0.0001303,53.2189,28.4448,107.0174,253.0961,0.00020291,2.943e-05,0.0,0 STARLINK-3113,1 49735U 21115M   24107.03488251  .00002943  00000-0  20291-3 0  9998,2 49735  53.2189  28.4448 0001303 107.0174 253.0961 15.08845476131936,6917.864,95.437,540.63,538.827,0.0
49735.0,STARLINK-3113,PAYLOAD,2024-04-16 11:57:54,15.08859153,0.0001525,53.2183,26.3686,51.4881,308.6248,0.00064565,0.00010008,0.0,0 STARLINK-3113,1 49735U 21115M   24107.49854814  .00010008  00000-0  64565-3 0  9993,2 49735  53.2183  26.3686 0001525  51.4881 308.6248 15.08859153132005,6917.822,95.436,540.742,538.632,0.0
49735.0,STARLINK-3113,PAYLOAD,2024-04-17 03:51:45,15.08867534,9.31e-05,53.2176,23.3935,102.8229,257.2867,0.00042864,6.546e-05,0.0,0 STARLINK-3113,1 49735U 21115M   24108.16094824  .00006546  00000-0  42864-3 0  9995,2 49735  53.2176  23.3935 0000931 102.8229 257.2867 15.08867534132107,6917.796,95.436,540.305,539.017,0.0
49735.0,STARLINK-3113,PAYLOAD,2024-04-17 21:21:01,15.08831412,0.0001204,53.2186,20.1232,75.9836,284.129,-0.00015645,-2.776e-05,0.0,0 STARLINK-3113,1 49735U 21115M   24108.88960552 -.00002776  00000-0 -15645-3 0  9994,2 49735  53.2186  20.1232 0001204  75.9836 284.1290 15.08831412131105,6917.907,95.438,540.605,538.939,0.0
49735.0,STARLINK-3113,PAYLOAD,2024-04-18 03:42:34,15.0882717,9.97e-05,53.2173,18.9348,112.4015,247.7083,-0.00017188,-3.021e-05,0.0,0 STARLINK-3113,1 49735U 21115M   24109.15456727 -.00003021  00000-0 -17188-3 0  9997,2 49735  53.2173  18.9348 0000997 112.4015 247.7083 15.08827170132256,6917.92,95.438,540.474,539.095,0.0
49735.0,STARLINK-3113,PAYLOAD,2024-04-18 22:47:13,15.0882886,0.000157,53.2193,15.3689,62.7581,297.3571,0.00019385,2.798e-05,0.0,0 STARLINK-3113,1 49735U 21115M   24109.94945780  .00002798  00000-0  19385-3 0  9995,2 49735  53.2193  15.3689 0001570  62.7581 297.3571 15.08828860131260,6917.914,95.438,540.866,538.693,0.0
49735.0,STARLINK-3113,PAYLOAD,2024-04-19 05:08:45,15.08855226,0.0001306,53.2187,14.1757,93.2004,266.9137,0.0012592,0.00019817,0.0,0 STARLINK-3113,1 49735U 21115M   24110.21441399  .00019817  00000-0  12592-2 0  9996,2 49735  53.2187  14.1757 0001306  93.2004 266.9137 15.08855226132416,6917.834,95.437,540.602,538.795,0.0
49735.0,STARLINK-3113,PAYLOAD,2024-04-19 21:02:36,15.08868074,0.0001367,53.219,11.2059,95.4355,264.6793,0.0010907,0.00017126,0.0,0 STARLINK-3113,1 49735U 21115M   24110.87680947  .00017126  00000-0  10907-2 0  9991,2 49735  53.2190  11.2059 0001367  95.4355 264.6793 15.08868074132512,6917.795,95.436,540.605,538.714,0.0
49735.0,STARLINK-3113,PAYLOAD,2024-04-19 22:37:59,15.08874985,0.0001399,53.2195,10.9087,78.9172,281.1978,0.00137,0.00021604,0.0,0 STARLINK-3113,1 49735U 21115M   24110.94304834  .00021604  00000-0  13700-2 0  9997,2 49735  53.2195  10.9087 0001399  78.9172 281.1978 15.08874985131417,6917.773,95.435,540.606,538.671,0.0
49735.0,STARLINK-3113,PAYLOAD,2024-04-20 03:24:08,15.08888345,0.0001713,53.2189,10.011,110.5795,249.5381,0.0013982,0.00022064,0.0,0 STARLINK-3113,1 49735U 21115M   24111.14175991  .00022064  00000-0  13982-2 0  9993,2 49735  53.2189  10.0110 0001713 110.5795 249.5381 15.08888345132559,6917.733,95.434,540.783,538.413,0.0
49735.0,STARLINK-3113,PAYLOAD,2024-04-20 17:42:35,15.08868053,0.000143,53.2194,7.3338,89.173,270.9427,0.0003456,5.221e-05,0.0,0 STARLINK-3113,1 49735U 21115M   24111.73791318  .00005221  00000-0  34560-3 0  9997,2 49735  53.2194   7.3338 0001430  89.1730 270.9427 15.08868053132645,6917.795,95.436,540.649,538.67,0.0
49735.0,STARLINK-3113,PAYLOAD,2024-04-21 00:04:08,15.08825616,0.0001805,53.2193,6.1497,57.3154,302.8012,-0.0010787,-0.00017408,0.0,0 STARLINK-3113,1 49735U 21115M   24112.00287952 -.00017408  00000-0 -10787-2 0  9998,2 49735  53.2193   6.1497 0001805  57.3154 302.8012 15.08825616132687,6917.924,95.438,541.038,538.541,0.0
49735.0,STARLINK-3113,PAYLOAD,2024-04-21 20:44:11,15.08818927,0.0001414,53.2183,2.2811,94.5307,265.5847,0.00085879,0.00013398,0.0,0 STARLINK-3113,1 49735U 21115M   24112.86401690  .00013398  00000-0  85879-3 0  9996,2 49735  53.2183   2.2811 0001414  94.5307 265.5847 15.08818927132815,6917.945,95.439,540.788,538.832,0.0
49735.0,STARLINK-3113,PAYLOAD,2024-04-21 22:19:34,15.08828283,0.0001597,53.2194,1.9847,88.4043,271.7132,0.0013961,0.00021994,0.0,0 STARLINK-3113,1 49735U 21115M   24112.93025825  .00021994  00000-0  13961-2 0  9999,2 49735  53.2194   1.9847 0001597  88.4043 271.7132 15.08828283131713,6917.916,95.438,540.886,538.676,0.0
49735.0,STARLINK-3113,PAYLOAD,2024-04-22 03:05:43,15.08857603,0.0001515,53.2185,1.0926,91.4928,268.6238,0.002379,0.00037795,0.0,0 STARLINK-3113,1 49735U 21115M   24113.12897619  .00037795  00000-0  23790-2 0  9996,2 49735  53.2185   1.0926 0001515  91.4928 268.6238 15.08857603132854,6917.827,95.436,540.74,538.644,0.0
49735.0,STARLINK-3113,PAYLOAD,2024-04-22 20:34:58,15.08846681,0.0002261,53.2184,357.817,139.3533,220.7628,0.0010178,0.0001595,0.0,0 STARLINK-3113,1 49735U 21115M   24113.85761584  .00015950  00000-0  10178-2 0  9992,2 49735  53.2184 357.8170 0002261 139.3533 220.7628 15.08846681132967,6917.86,95.437,541.289,538.161,0.0
49735.0,STARLINK-3113,PAYLOAD,2024-04-22 22:10:20,15.08848742,0.000233,53.219,357.5195,147.0646,213.0492,0.00040996,6.244e-05,0.0,0 STARLINK-3113,1 49735U 21115M   24113.92385356  .00006244  00000-0  40996-3 0  9997,2 49735  53.2190 357.5195 0002330 147.0646 213.0492 15.08848742131868,6917.854,95.437,541.331,538.107,0.0
49735.0,STARLINK-3113,PAYLOAD,2024-04-23 01:21:07,15.08841059,0.0001095,53.218,356.9277,97.2792,262.8325,0.00035871,5.426e-05,0.0,0 STARLINK-3113,1 49735U 21115M   24114.05633858  .00005426  00000-0  35871-3 0  9992,2 49735  53.2180 356.9277 0001095  97.2792 262.8325 15.08841059132992,6917.877,95.437,540.5,538.985,0.0
49735.0,STARLINK-3113,PAYLOAD,2024-04-23 20:25:45,15.08837084,0.0001336,53.2177,353.3633,74.1227,285.9913,0.00014063,1.951e-05,0.0,0 STARLINK-3113,1 49735U 21115M   24114.85122473  .00001951  00000-0  14063-3 0  9995,2 49735  53.2177 353.3633 0001336  74.1227 285.9913 15.08837084133117,6917.889,95.438,540.679,538.83,0.0
49735.0,STARLINK-3113,PAYLOAD,2024-04-23 22:01:08,15.08840254,0.0001482,53.2173,353.0667,69.9373,290.1778,0.00023467,3.449e-05,0.0,0 STARLINK-3113,1 49735U 21115M   24114.91746467  .00003449  00000-0  23467-3 0  9999,2 49735  53.2173 353.0667 0001482  69.9373 290.1778 15.08840254132011,6917.88,95.438,540.77,538.719,0.0
49735.0,STARLINK-3113,PAYLOAD,2024-04-24 01:11:55,15.08845048,0.0001505,53.2179,352.4715,71.6012,288.5143,0.0003478,5.252e-05,0.0,0 STARLINK-3113,1 49735U 21115M   24115.04994361  .00005252  00000-0  34780-3 0  9996,2 49735  53.2179 352.4715 0001505  71.6012 288.5143 15.08845048132035,6917.865,95.437,540.771,538.689,0.0
